{
    "links": {
        "self": "http://www.neowsapp.com/rest/v1/neo/3788007?api_key=iIulBulltgU6a56xZRHN4H3l9WmuAYTsLGpBGhQ2"
    },
    "id": "3788007",
    "neo_reference_id": "3788007",
    "name": "(2017 UQ4)",
    "designation": "2017 UQ4",
    "nasa_jpl_url": "http://ssd.jpl.nasa.gov/sbdb.cgi?sstr=3788007",
    "absolute_magnitude_h": 24.0,
    "estimated_diameter": {
        "kilometers": {
            "estimated_diameter_min": 0.0421264611,
            "estimated_diameter_max": 0.0941976306
        },
        "meters": {
            "estimated_diameter_min": 42.1264610556,
            "estimated_diameter_max": 94.1976305719
        },
        "miles": {
            "estimated_diameter_min": 0.0261761612,
            "estimated_diameter_max": 0.0585316759
        },
        "feet": {
            "estimated_diameter_min": 138.2101784897,
            "estimated_diameter_max": 309.0473542854
        }
    },
    "is_potentially_hazardous_asteroid": false,
    "close_approach_data": [
        {
            "close_approach_date": "1933-09-08",
            "close_approach_date_full": "1933-Sep-08 13:57",
            "epoch_date_close_approach": -1145959380000,
            "relative_velocity": {
                "kilometers_per_second": "19.7259030163",
                "kilometers_per_hour": "71013.2508585846",
                "miles_per_hour": "44124.8724571022"
            },
            "miss_distance": {
                "astronomical": "0.3840614707",
                "lunar": "149.3999121023",
                "kilometers": "57454777.965787409",
                "miles": "35700743.5624638842"
            },
            "orbiting_body": "Earth"
        },
        {
            "close_approach_date": "1958-04-23",
            "close_approach_date_full": "1958-Apr-23 06:01",
            "epoch_date_close_approach": -368992740000,
            "relative_velocity": {
                "kilometers_per_second": "4.8956050235",
                "kilometers_per_hour": "17624.1780846426",
                "miles_per_hour": "10950.9788770936"
            },
            "miss_distance": {
                "astronomical": "1.4610636447",
                "lunar": "568.3537577883",
                "kilometers": "218572009.181556789",
                "miles": "135814348.7103861282"
            },
            "orbiting_body": "Juptr"
        },
        {
            "close_approach_date": "2017-10-24",
            "close_approach_date_full": "2017-Oct-24 16:09",
            "epoch_date_close_approach": 1508861340000,
            "relative_velocity": {
                "kilometers_per_second": "9.610264958",
                "kilometers_per_hour": "34596.9538486749",
                "miles_per_hour": "21497.2016844725"
            },
            "miss_distance": {
                "astronomical": "0.1175254442",
                "lunar": "45.7173977938",
                "kilometers": "17581556.123123854",
                "miles": "10924672.3911190252"
            },
            "orbiting_body": "Earth"
        },
        {
            "close_approach_date": "2113-01-11",
            "close_approach_date_full": "2113-Jan-11 11:16",
            "epoch_date_close_approach": 4513576560000,
            "relative_velocity": {
                "kilometers_per_second": "5.5647154842",
                "kilometers_per_hour": "20032.9757430141",
                "miles_per_hour": "12447.7120665412"
            },
            "miss_distance": {
                "astronomical": "1.4533340547",
                "lunar": "565.3469472783",
                "kilometers": "217415678.981583489",
                "miles": "135095838.4418865882"
            },
            "orbiting_body": "Juptr"
        },
        {
            "close_approach_date": "2148-10-10",
            "close_approach_date_full": "2148-Oct-10 02:19",
            "epoch_date_close_approach": 5641582740000,
            "relative_velocity": {
                "kilometers_per_second": "6.9324902284",
                "kilometers_per_hour": "24956.9648223775",
                "miles_per_hour": "15507.2873919934"
            },
            "miss_distance": {
                "astronomical": "1.8379285292",
                "lunar": "714.9541978588",
                "kilometers": "274950193.180552804",
                "miles": "170846127.8021805352"
            },
            "orbiting_body": "Juptr"
        }
    ],
    "orbital_data": {
        "orbit_id": "6",
        "orbit_determination_date": "2018-01-18 06:53:20",
        "first_observation_date": "2017-10-22",
        "last_observation_date": "2017-12-22",
        "data_arc_in_days": 61,
        "observations_used": 31,
        "orbit_uncertainty": "7",
        "minimum_orbit_intersection": ".0660098",
        "jupiter_tisserand_invariant": "3.037",
        "epoch_osculation": "2459000.5",
        "eccentricity": ".6200263347818853",
        "semi_major_axis": "2.693694785295539",
        "inclination": "11.68708420088348",
        "ascending_node_longitude": "184.4521823685042",
        "orbital_period": "1614.808419660989",
        "perihelion_distance": "1.023533080547668",
        "perihelion_argument": "212.4183241313069",
        "aphelion_distance": "4.363856490043409",
        "perihelion_time": "2459673.528562473149",
        "mean_anomaly": "209.9572583717394",
        "mean_motion": ".2229366627129539",
        "equinox": "J2000",
        "orbit_class": {
            "orbit_class_type": "AMO",
            "orbit_class_description": "Near-Earth asteroid orbits similar to that of 1221 Amor",
            "orbit_class_range": "1.017 AU < q (perihelion) < 1.3 AU"
        }
    },
    "is_sentry_object": false
}